[{"OBJECT_NAME":"NETSAT-1","OBJECT_ID":"2020-068W","EPOCH":"2026-03-09T22:42:38.711232","MEAN_MOTION":15.32042482,"ECCENTRICITY":0.00057337,"INCLINATION":97.8751,"RA_OF_ASC_NODE":63.2583,"ARG_OF_PERICENTER":18.5877,"MEAN_ANOMALY":341.5572,"EPHEMERIS_TYPE":0,"CLASSIFICATION_TYPE":"U","NORAD_CAT_ID":46506,"ELEMENT_SET_NO":999,"REV_AT_EPOCH":30009,"BSTAR":0.00059222329,"MEAN_MOTION_DOT":0.00018269,"MEAN_MOTION_DDOT":0},{"OBJECT_NAME":"STARLINK-32843","OBJECT_ID":"2025-018J","EPOCH":"2026-03-09T22:19:18.526656","MEAN_MOTION":15.30173144,"ECCENTRICITY":8.818e-5,"INCLINATION":53.161,"RA_OF_ASC_NODE":308.5895,"ARG_OF_PERICENTER":124.1197,"MEAN_ANOMALY":235.9888,"EPHEMERIS_TYPE":0,"CLASSIFICATION_TYPE":"U","NORAD_CAT_ID":62814,"ELEMENT_SET_NO":999,"REV_AT_EPOCH":6320,"BSTAR":0.0013315326,"MEAN_MOTION_DOT":0.00039253,"MEAN_MOTION_DDOT":0}]
